SL-4 R/B                
1 39679U 14021B   26028.87604674  .00017219  00000+0  39304-3 0  9993
2 39679  51.6052 171.3120 0099034 317.7837  41.5550 15.37932933650142
ALOS-2                  
1 39766U 14029A   26027.46285272  .00000535  00000+0  78529-4 0  9997
2 39766  97.9188 126.6510 0001467 100.4748 259.6629 14.79473850630778
YAOGAN-29               
1 41038U 15069A   26028.98527983  .00001038  00000+0  13453-3 0  9996
2 41038  98.0195  57.3019 0002855 102.3034 257.8499 14.82948847549993
ASTRO-H (HITOMI)        
1 41337U 16012A   26028.70409979  .00004417  00000+0  26144-3 0  9996
2 41337  30.9987 254.5277 0009931 290.9559  69.0016 15.09706054546182
HXMT (HUIYAN)           
1 42758U 17034A   26028.94777074  .00006762  00000+0  34387-3 0  9992
2 42758  43.0126 237.5339 0032409 341.0387  18.9252 15.16934592476504
CZ-2C R/B               
1 43521U 18054D   26028.85409401  .00304841  34292-4  99363-3 0  9999
2 43521  35.1295 218.3426 0013399 276.0136  83.9075 15.89454611422518
SAOCOM 1A               
1 43641U 18076A   26028.92922646  .00000616  00000+0  83849-4 0  9996
2 43641  97.8867 217.6667 0001462  81.3911 278.7468 14.82171821395471
H-2A R/B                
1 43682U 18084L   26028.84929778  .00029534  00000+0  74327-3 0  9994
2 43682  98.8764 237.7745 0026109 160.0626 200.1641 15.39543348399641
SAOCOM 1B               
1 46265U 20059A   26028.96051078  .00001267  00000+0  16570-3 0  9990
2 46265  97.8865 216.7958 0001390  84.0210 276.1162 14.82151752292862
CSS (TIANHE)            
1 48274U 21035A   26028.57199371  .00027953  00000+0  32262-3 0  9999
2 48274  41.4673  91.9689 0009404  23.4558 336.6709 15.61237451271344
COSMOS 2550             
1 48865U 21056A   26026.13240542 -.00000181  00000+0  32270-6 0  9992
2 48865  67.1441 169.6578 0008309 269.8947  90.1255 15.33840202256938
CZ-2C R/B               
1 52794U 22058K   26028.80731548  .00035326  00000+0  57047-3 0  9992
2 52794  50.1879 163.0070 0042534  32.1438 328.2111 15.51457109203938
